{"fetched_at":"2026-03-29T16:36:15Z","count":15609,"tles":[{"name":"ONEWEB-0554","line1":"1 56056U 23043L   26087.91647284 -.00000054  00000+0 -17562-3 0  9992","line2":"2 56056  87.9032 244.7395 0001599 109.6168 250.5136 13.16594773148395","category":"Other"}]}