{
  "norad_id": 56056,
  "name": "ONEWEB-0554",
  "history": [
    {
      "epoch": "2026-03-28T21:59:43.253376Z",
      "apogee_km": 1198.966072744428,
      "perigee_km": 1196.5433025827124,
      "latitude_deg": 4.34884457442198e-05,
      "longitude_deg": 88.47922640055934,
      "height_km": 1201.0558742883136,
      "semi_major_axis_km": 7575.891687663569,
      "eccentricity": 0.0001599,
      "inclination_deg": 87.9032,
      "raan_deg": 244.7395,
      "arg_perigee_deg": 109.6168,
      "mean_anomaly_deg": 250.5136,
      "mean_motion_rev_day": 13.16594773
    }
  ]
}